[{"OBJECT_NAME":"JILIN-1 06","OBJECT_ID":"2017-074C","EPOCH":"2026-03-09T22:46:57.173376","MEAN_MOTION":15.32444387,"ECCENTRICITY":0.00061285,"INCLINATION":97.4715,"RA_OF_ASC_NODE":171.0354,"ARG_OF_PERICENTER":223.0031,"MEAN_ANOMALY":137.0732,"EPHEMERIS_TYPE":0,"CLASSIFICATION_TYPE":"U","NORAD_CAT_ID":43024,"ELEMENT_SET_NO":999,"REV_AT_EPOCH":45863,"BSTAR":0.00028431628,"MEAN_MOTION_DOT":8.833e-5,"MEAN_MOTION_DDOT":0},{"OBJECT_NAME":"STARLINK-35278","OBJECT_ID":"2025-224W","EPOCH":"2026-03-09T06:02:35.810304","MEAN_MOTION":15.30219702,"ECCENTRICITY":0.00013841,"INCLINATION":53.1608,"RA_OF_ASC_NODE":13.6297,"ARG_OF_PERICENTER":95.9963,"MEAN_ANOMALY":264.1196,"EPHEMERIS_TYPE":0,"CLASSIFICATION_TYPE":"U","NORAD_CAT_ID":65902,"ELEMENT_SET_NO":999,"REV_AT_EPOCH":2480,"BSTAR":0.0010090938,"MEAN_MOTION_DOT":0.00029665,"MEAN_MOTION_DDOT":0}]
